[{"OBJECT_NAME":"LKW-3","OBJECT_ID":"2018-006A","EPOCH":"2026-03-09T23:35:48.740928","MEAN_MOTION":15.33087407,"ECCENTRICITY":0.00022503,"INCLINATION":97.6481,"RA_OF_ASC_NODE":225.9034,"ARG_OF_PERICENTER":308.148,"MEAN_ANOMALY":51.9559,"EPHEMERIS_TYPE":0,"CLASSIFICATION_TYPE":"U","NORAD_CAT_ID":43146,"ELEMENT_SET_NO":999,"REV_AT_EPOCH":45350,"BSTAR":0.00042518021,"MEAN_MOTION_DOT":0.00013518,"MEAN_MOTION_DDOT":0},{"OBJECT_NAME":"STARLINK-34240","OBJECT_ID":"2025-120K","EPOCH":"2026-03-09T12:15:33.545952","MEAN_MOTION":15.30192145,"ECCENTRICITY":0.00013494,"INCLINATION":53.1594,"RA_OF_ASC_NODE":117.8863,"ARG_OF_PERICENTER":70.2304,"MEAN_ANOMALY":289.8842,"EPHEMERIS_TYPE":0,"CLASSIFICATION_TYPE":"U","NORAD_CAT_ID":64265,"ELEMENT_SET_NO":999,"REV_AT_EPOCH":4388,"BSTAR":0.0010257868,"MEAN_MOTION_DOT":0.00030138,"MEAN_MOTION_DDOT":0}]
